NORAD_CAT_ID,OBJECT_NAME,OBJECT_TYPE,EPOCH,MEAN_MOTION,ECCENTRICITY,INCLINATION,RA_OF_ASC_NODE,ARG_OF_PERICENTER,MEAN_ANOMALY,BSTAR,MEAN_MOTION_DOT,MEAN_MOTION_DDOT,TLE_LINE0,TLE_LINE1,TLE_LINE2,SEMIMAJOR_AXIS,PERIOD,APOGEE,PERIGEE,DECAYED
53720.0,STARLINK-4642,PAYLOAD,2024-08-18 12:37:42,15.08846201,0.0001609,53.216,284.4626,91.385,268.7327,0.00019539,2.823e-05,0.0,0 STARLINK-4642,1 53720U 22107W   24231.52618606  .00002823  00000-0  19539-3 0  9990,2 53720  53.2160 284.4626 0001609  91.3850 268.7327 15.08846201108649,6917.861,95.437,540.84,538.613,0.0
53720.0,STARLINK-4642,PAYLOAD,2024-08-19 09:17:43,15.08836866,0.0001676,53.2167,280.5977,95.1311,264.9873,0.000117,1.574e-05,0.0,0 STARLINK-4642,1 53720U 22107W   24232.38731184  .00001574  00000-0  11700-3 0  9996,2 53720  53.2167 280.5977 0001676  95.1311 264.9873 15.08836866108314,6917.89,95.438,540.914,538.596,0.0
53720.0,STARLINK-4642,PAYLOAD,2024-08-20 10:43:53,15.08845998,0.0001528,53.215,275.8389,93.3813,266.7354,9.6975e-05,1.256e-05,0.0,0 STARLINK-4642,1 53720U 22107W   24233.44714707  .00001256  00000-0  96975-4 0  9991,2 53720  53.2150 275.8389 0001528  93.3813 266.7354 15.08845998108470,6917.862,95.437,540.784,538.67,0.0
53720.0,STARLINK-4642,PAYLOAD,2024-08-21 08:59:17,15.08842362,0.0001469,53.215,271.6752,94.0265,266.0895,0.00012071,1.634e-05,0.0,0 STARLINK-4642,1 53720U 22107W   24234.37450858  .00001634  00000-0  12071-3 0  9992,2 53720  53.2150 271.6752 0001469  94.0265 266.0895 15.08842362108612,6917.873,95.437,540.754,538.722,0.0
53720.0,STARLINK-4642,PAYLOAD,2024-08-21 20:06:59,15.08844768,0.0001458,53.216,269.5934,94.862,265.2538,0.00011329,1.516e-05,0.0,0 STARLINK-4642,1 53720U 22107W   24234.83818633  .00001516  00000-0  11329-3 0  9996,2 53720  53.2160 269.5934 0001458  94.8620 265.2538 15.08844768109148,6917.866,95.437,540.739,538.722,0.0
